[
  {
    "country": "---",
    "cities": []
  },
  {
    "country": "Vietnam",

    "cities": [
      { "name": "Hanoi", "zipCode": "100000" },
      { "name": "Ho Chi Minh City", "zipCode": "700000" },
      { "name": "Da Nang", "zipCode": "550000" },
      { "name": "Hai Phong", "zipCode": "180000" },
      { "name": "Can Tho", "zipCode": "900000" }
    ],
    "shippingFees": 2
  },
  {
    "country": "United States",
    "cities": [
      { "name": "New York", "zipCode": "10001" },
      { "name": "Los Angeles", "zipCode": "90001" },
      { "name": "Chicago", "zipCode": "60601" },
      { "name": "Houston", "zipCode": "77001" },
      { "name": "San Francisco", "zipCode": "94101" }
    ],
    "shippingFees": 25
  },
  {
    "country": "Japan",
    "cities": [
      { "name": "Tokyo", "zipCode": "1000001" },
      { "name": "Osaka", "zipCode": "5300001" },
      { "name": "Yokohama", "zipCode": "2200001" },
      { "name": "Nagoya", "zipCode": "4500001" },
      { "name": "Sapporo", "zipCode": "0600001" }
    ],
    "shippingFees": 15
  },
  {
    "country": "France",
    "cities": [
      { "name": "Paris", "zipCode": "75000" },
      { "name": "Marseille", "zipCode": "13000" },
      { "name": "Lyon", "zipCode": "69000" },
      { "name": "Toulouse", "zipCode": "31000" },
      { "name": "Nice", "zipCode": "6000" }
    ],
    "shippingFees": 20
  },
  {
    "country": "United Kingdom",
    "cities": [
      { "name": "London", "zipCode": "EC1A" },
      { "name": "Manchester", "zipCode": "M1" },
      { "name": "Birmingham", "zipCode": "B1" },
      { "name": "Liverpool", "zipCode": "L1" },
      { "name": "Leeds", "zipCode": "LS1" }
    ],
    "shippingFees": 22
  },
  {
    "country": "Germany",
    "cities": [
      { "name": "Berlin", "zipCode": "10115" },
      { "name": "Munich", "zipCode": "80331" },
      { "name": "Hamburg", "zipCode": "20095" },
      { "name": "Cologne", "zipCode": "50667" },
      { "name": "Frankfurt", "zipCode": "60311" }
    ],
    "shippingFees": 20
  },
  {
    "country": "Canada",
    "cities": [
      { "name": "Toronto", "zipCode": "M5A" },
      { "name": "Vancouver", "zipCode": "V5K" },
      { "name": "Montreal", "zipCode": "H1A" },
      { "name": "Calgary", "zipCode": "T2A" },
      { "name": "Ottawa", "zipCode": "K1A" }
    ],
    "shippingFees": 28
  },
  {
    "country": "Australia",
    "cities": [
      { "name": "Sydney", "zipCode": "2000" },
      { "name": "Melbourne", "zipCode": "3000" },
      { "name": "Brisbane", "zipCode": "4000" },
      { "name": "Perth", "zipCode": "6000" },
      { "name": "Adelaide", "zipCode": "5000" }
    ],
    "shippingFees": 18
  },
  {
    "country": "Italy",
    "cities": [
      { "name": "Rome", "zipCode": "00100" },
      { "name": "Milan", "zipCode": "20100" },
      { "name": "Naples", "zipCode": "80100" },
      { "name": "Turin", "zipCode": "10100" },
      { "name": "Palermo", "zipCode": "90100" }
    ],
    "shippingFees": 20
  },
  {
    "country": "China",
    "cities": [
      { "name": "Beijing", "zipCode": "100000" },
      { "name": "Shanghai", "zipCode": "200000" },
      { "name": "Guangzhou", "zipCode": "510000" },
      { "name": "Shenzhen", "zipCode": "518000" },
      { "name": "Chengdu", "zipCode": "610000" }
    ],
    "shippingFees": 10
  }
]
